49313,ONEWEB-0387,2021,109.03,148.0,+,87.93,Active,1,LEO,Russia,UK,Commercial,Communications,Soyuz,1 49313U 21090AL  25100.71961159  .00000067  00000+0  13172-3 0  9998,2 49313  87.9311   0.5881 0001955  90.2427 269.8931 13.20772176172731,13.20772176,0.0001955,LEO
49314,ONEWEB-0388,2021,109.11,148.0,+,87.93,Active,1,LEO,Russia,UK,Commercial,Communications,Soyuz,1 49314U 21090AM  25100.79722112  .00000008  00000+0 -12117-4 0  9996,2 49314  87.9255  30.9217 0002073  80.5653 279.5714 13.19725114169386,13.19725114,0.0002073,LEO
50469,ONEWEB-0389,2021,109.29,148.0,+,87.9,Active,1,LEO,Kazakhstan,UK,Commercial,Communications,Soyuz,1 50469U 21132A   25101.19784424  .00000098  00000+0  21970-3 0  9999,2 50469  87.9009  91.9046 0002210  98.1423 261.9960 13.17650576162485,13.17650576,0.000221,LEO
50470,ONEWEB-0390,2021,109.29,148.0,+,87.9,Active,1,LEO,Kazakhstan,UK,Commercial,Communications,Soyuz,1 50470U 21132B   25101.19952672  .00000059  00000+0  11788-3 0  9996,2 50470  87.9011  91.9113 0001701  93.4172 266.7154 13.17652122162485,13.17652122,0.0001701,LEO
50471,ONEWEB-0391,2021,109.29,148.0,+,87.9,Active,1,LEO,Kazakhstan,UK,Commercial,Communications,Soyuz,1 50471U 21132C   25100.51780077  .00000086  00000+0  18892-3 0  9993,2 50471  87.9018  92.0548 0002280 111.2505 248.8870 13.17647646161108,13.17647646,0.000228,LEO
50472,ONEWEB-0392,2021,109.29,148.0,+,87.9,Active,1,LEO,Kazakhstan,UK,Commercial,Communications,Soyuz,1 50472U 21132D   25101.38345976 -.00000021  00000+0 -88116-4 0  9993,2 50472  87.9004  91.8391 0002205  99.0974 261.0407 13.17646807162547,13.17646807,0.0002205,LEO
50473,ONEWEB-0393,2021,109.29,148.0,+,87.9,Active,1,LEO,Kazakhstan,UK,Commercial,Communications,Soyuz,1 50473U 21132E   25101.20472883  .00000024  00000+0  29584-4 0  9998,2 50473  87.9013  91.8818 0002067  93.6676 266.4692 13.17646819162512,13.17646819,0.0002067,LEO
50474,ONEWEB-0394,2021,109.2,148.0,+,87.91,Active,1,LEO,Kazakhstan,UK,Commercial,Communications,Soyuz,1 50474U 21132F   25101.13296323  .00000059  00000+0  11709-3 0  9991,2 50474  87.9107  61.3212 0002102  84.9815 275.1557 13.18685264165928,13.18685264,0.0002102,LEO
